[{"OBJECT_NAME":"STARLINK-31124","OBJECT_ID":"2023-211H","EPOCH":"2026-03-09T11:14:08.500416","MEAN_MOTION":15.27571582,"ECCENTRICITY":0.00023599,"INCLINATION":43.0037,"RA_OF_ASC_NODE":86.2802,"ARG_OF_PERICENTER":269.4061,"MEAN_ANOMALY":90.6521,"EPHEMERIS_TYPE":0,"CLASSIFICATION_TYPE":"U","NORAD_CAT_ID":58674,"ELEMENT_SET_NO":999,"REV_AT_EPOCH":12243,"BSTAR":0.00027032682,"MEAN_MOTION_DOT":7.182e-5,"MEAN_MOTION_DDOT":0},{"OBJECT_NAME":"NUSAT-50 (NANCY ROMAN)","OBJECT_ID":"2024-149AB","EPOCH":"2026-03-09T19:15:16.765632","MEAN_MOTION":15.29713355,"ECCENTRICITY":0.00025229,"INCLINATION":97.3817,"RA_OF_ASC_NODE":150.7693,"ARG_OF_PERICENTER":238.0469,"MEAN_ANOMALY":122.0527,"EPHEMERIS_TYPE":0,"CLASSIFICATION_TYPE":"U","NORAD_CAT_ID":60493,"ELEMENT_SET_NO":999,"REV_AT_EPOCH":8693,"BSTAR":0.0004225155,"MEAN_MOTION_DOT":0.00012094,"MEAN_MOTION_DDOT":0}]
